IRIDIUM 119             
1 42959U 17061E   23344.71716163  .00000254  00000+0  83534-4 0  9999
2 42959  86.3982  49.4964 0002332 100.2442 259.9016 14.34218868323023
IRIDIUM 107             
1 42960U 17061F   23344.73619019  .00000180  00000+0  57231-4 0  9998
2 42960  86.3983  49.5045 0002472  94.5043 265.6436 14.34217700323040
IRIDIUM 132             
1 42961U 17061G   23344.74252793  .00000258  00000+0  85158-4 0  9997
2 42961  86.3981  49.4873 0002439  94.5607 265.5868 14.34218273323039
IRIDIUM 136             
1 42962U 17061H   23344.56494103  .00000263  00000+0  87010-4 0  9996
2 42962  86.3981  49.5638 0002121 104.1363 256.0069 14.34218427323023
IRIDIUM 139             
1 42963U 17061J   23344.57128714  .00000257  00000+0  84693-4 0  9997
2 42963  86.3985  49.6089 0002423  95.6988 264.4485 14.34217759323034
IRIDIUM 125             
1 42964U 17061K   23344.69811686  .00000251  00000+0  82518-4 0  9996
2 42964  86.3985  49.5999 0002541 101.7078 258.4403 14.34224669323068
IRIDIUM 135             
1 43070U 17083A   23344.53272947  .00000224  00000+0  73038-4 0  9990
2 43070  86.3963 346.3761 0002149  84.1985 275.9455 14.34213964312338
IRIDIUM 138             
1 43071U 17083B   23344.48833189  .00000275  00000+0  91024-4 0  9997
2 43071  86.3952 346.1359 0002369  96.6413 263.5052 14.34217219312317
